QIANFAN-225             
1 69854U 26155G   26196.99583489 -.02004977  00000+0 -10184+1 0  9994
2 69854  89.0058  60.8555 0033066 224.9130 134.9384 14.19748844  1498
QIANFAN-226             
1 69855U 26155H   26196.64332640 -.01954139  00000+0 -94248+0 0  9993
2 69855  89.0073  60.8921 0025328 219.4211 140.5138 14.22513031  1441
QIANFAN-227             
1 69856U 26155J   26197.27509881  .00000181  00000+0  68729-4 0  9993
2 69856  89.0064  60.8232 0030503 219.7771 140.1187 14.26683434  1531
QIANFAN-228             
1 69857U 26155K   26197.13479864  .00000218  00000+0  83916-4 0  9992
2 69857  89.0065  60.8393 0030472 220.3370 139.5564 14.26684103  1512
QIANFAN-229             
1 69858U 26155L   26197.27502313  .00000030  00000+0  63564-5 0  9994
2 69858  89.0066  60.8231 0030522 219.5457 140.3510 14.26689013  1535
QIANFAN-230             
1 69859U 26155M   26197.21503055  .00000203  00000+0  85399-4 0  9994
2 69859  89.0062  60.8325 0029127 220.4822 139.4203 14.21841895  1522
QIANFAN-231             
1 69860U 26155N   26197.20768925  .00000297  00000+0  11787-3 0  9996
2 69860  89.0066  60.8318 0030587 219.1530 140.7450 14.26096185  1521
QIANFAN-232             
1 69861U 26155P   26197.13467436  .00000266  00000+0  10339-3 0  9990
2 69861  89.0065  60.8391 0030402 220.6644 139.2280 14.26735918  1518
QIANFAN-233             
1 69862U 26155Q   26197.13457113  .00000219  00000+0  84347-4 0  9991
2 69862  89.0066  60.8392 0030344 220.4946 139.3990 14.26751728  1515
QIANFAN-234             
1 69863U 26155R   26197.20465690  .00000066  00000+0  20994-4 0  9997
2 69863  89.0066  60.8313 0030314 220.3231 139.5716 14.26758168  1526
QIANFAN-235             
1 69864U 26155S   26197.20461331  .00000066  00000+0  21076-4 0  9998
2 69864  89.0065  60.8311 0030262 220.3283 139.5667 14.26764125  1528
QIANFAN-236             
1 69865U 26155T   26197.20457567  .00000231  00000+0  89035-4 0  9998
2 69865  89.0066  60.8313 0030243 220.3632 139.5318 14.26769390  1521
QIANFAN-237             
1 69866U 26155U   26197.27464590  .00000245  00000+0  94844-4 0  9999
2 69866  89.0065  60.8233 0030221 220.1478 139.7483 14.26777709  1522
QIANFAN-238             
1 69867U 26155V   26197.27459094  .00000228  00000+0  87865-4 0  9999
2 69867  89.0065  60.8232 0030204 220.1804 139.7157 14.26785103  1532
