{"fetched_at":"2026-07-16T17:46:08.983Z","source":"https://celestrak.org/NORAD/elements/gp.php?GROUP=qianfan&FORMAT=JSON","constellation":"qianfan","records":[{"OBJECT_NAME":"QIANFAN-225","OBJECT_ID":"2026-155G","EPOCH":"2026-07-15T23:54:00.134496","CLASSIFICATION_TYPE":"U","MEAN_MOTION":14.19748844,"ECCENTRICITY":0.00330663,"INCLINATION":89.0058,"RA_OF_ASC_NODE":60.8555,"ARG_OF_PERICENTER":224.913,"MEAN_ANOMALY":134.9384,"EPHEMERIS_TYPE":0,"NORAD_CAT_ID":69854,"ELEMENT_SET_NO":999,"REV_AT_EPOCH":149,"BSTAR":-1.018399,"MEAN_MOTION_DOT":-0.02004977,"MEAN_MOTION_DDOT":0},{"OBJECT_NAME":"QIANFAN-226","OBJECT_ID":"2026-155H","EPOCH":"2026-07-15T15:26:23.400960","CLASSIFICATION_TYPE":"U","MEAN_MOTION":14.22513031,"ECCENTRICITY":0.00253289,"INCLINATION":89.0073,"RA_OF_ASC_NODE":60.8921,"ARG_OF_PERICENTER":219.4211,"MEAN_ANOMALY":140.5138,"EPHEMERIS_TYPE":0,"NORAD_CAT_ID":69855,"ELEMENT_SET_NO":999,"REV_AT_EPOCH":144,"BSTAR":-0.94247573,"MEAN_MOTION_DOT":-0.01954139,"MEAN_MOTION_DDOT":0},{"OBJECT_NAME":"QIANFAN-227","OBJECT_ID":"2026-155J","EPOCH":"2026-07-16T06:36:08.537184","CLASSIFICATION_TYPE":"U","MEAN_MOTION":14.26683434,"ECCENTRICITY":0.00305032,"INCLINATION":89.0064,"RA_OF_ASC_NODE":60.8232,"ARG_OF_PERICENTER":219.7771,"MEAN_ANOMALY":140.1187,"EPHEMERIS_TYPE":0,"NORAD_CAT_ID":69856,"ELEMENT_SET_NO":999,"REV_AT_EPOCH":153,"BSTAR":0.000068728698,"MEAN_MOTION_DOT":0.00000181,"MEAN_MOTION_DDOT":0},{"OBJECT_NAME":"QIANFAN-228","OBJECT_ID":"2026-155K","EPOCH":"2026-07-16T03:14:06.602496","CLASSIFICATION_TYPE":"U","MEAN_MOTION":14.26684103,"ECCENTRICITY":0.00304729,"INCLINATION":89.0065,"RA_OF_ASC_NODE":60.8393,"ARG_OF_PERICENTER":220.337,"MEAN_ANOMALY":139.5564,"EPHEMERIS_TYPE":0,"NORAD_CAT_ID":69857,"ELEMENT_SET_NO":999,"REV_AT_EPOCH":151,"BSTAR":0.00008391559,"MEAN_MOTION_DOT":0.00000218,"MEAN_MOTION_DDOT":0},{"OBJECT_NAME":"QIANFAN-229","OBJECT_ID":"2026-155L","EPOCH":"2026-07-16T06:36:01.998432","CLASSIFICATION_TYPE":"U","MEAN_MOTION":14.26689013,"ECCENTRICITY":0.00305229,"INCLINATION":89.0066,"RA_OF_ASC_NODE":60.8231,"ARG_OF_PERICENTER":219.5457,"MEAN_ANOMALY":140.351,"EPHEMERIS_TYPE":0,"NORAD_CAT_ID":69858,"ELEMENT_SET_NO":999,"REV_AT_EPOCH":153,"BSTAR":0.000006356394,"MEAN_MOTION_DOT":3e-7,"MEAN_MOTION_DDOT":0},{"OBJECT_NAME":"QIANFAN-230","OBJECT_ID":"2026-155M","EPOCH":"2026-07-16T05:09:38.639520","CLASSIFICATION_TYPE":"U","MEAN_MOTION":14.21841895,"ECCENTRICITY":0.00291271,"INCLINATION":89.0062,"RA_OF_ASC_NODE":60.8325,"ARG_OF_PERICENTER":220.4822,"MEAN_ANOMALY":139.4203,"EPHEMERIS_TYPE":0,"NORAD_CAT_ID":69859,"ELEMENT_SET_NO":999,"REV_AT_EPOCH":152,"BSTAR":0.000085398534,"MEAN_MOTION_DOT":0.00000203,"MEAN_MOTION_DDOT":0},{"OBJECT_NAME":"QIANFAN-231","OBJECT_ID":"2026-155N","EPOCH":"2026-07-16T04:59:04.351200","CLASSIFICATION_TYPE":"U","MEAN_MOTION":14.26096185,"ECCENTRICITY":0.00305872,"INCLINATION":89.0066,"RA_OF_ASC_NODE":60.8318,"ARG_OF_PERICENTER":219.153,"MEAN_ANOMALY":140.745,"EPHEMERIS_TYPE":0,"NORAD_CAT_ID":69860,"ELEMENT_SET_NO":999,"REV_AT_EPOCH":152,"BSTAR":0.00011787113,"MEAN_MOTION_DOT":0.00000297,"MEAN_MOTION_DDOT":0},{"OBJECT_NAME":"QIANFAN-232","OBJECT_ID":"2026-155P","EPOCH":"2026-07-16T03:13:55.864704","CLASSIFICATION_TYPE":"U","MEAN_MOTION":14.26735918,"ECCENTRICITY":0.00304026,"INCLINATION":89.0065,"RA_OF_ASC_NODE":60.8391,"ARG_OF_PERICENTER":220.6644,"MEAN_ANOMALY":139.228,"EPHEMERIS_TYPE":0,"NORAD_CAT_ID":69861,"ELEMENT_SET_NO":999,"REV_AT_EPOCH":151,"BSTAR":0.00010339264,"MEAN_MOTION_DOT":0.00000266,"MEAN_MOTION_DDOT":0},{"OBJECT_NAME":"QIANFAN-233","OBJECT_ID":"2026-155Q","EPOCH":"2026-07-16T03:13:46.945632","CLASSIFICATION_TYPE":"U","MEAN_MOTION":14.26751728,"ECCENTRICITY":0.00303445,"INCLINATION":89.0066,"RA_OF_ASC_NODE":60.8392,"ARG_OF_PERICENTER":220.4946,"MEAN_ANOMALY":139.399,"EPHEMERIS_TYPE":0,"NORAD_CAT_ID":69862,"ELEMENT_SET_NO":999,"REV_AT_EPOCH":151,"BSTAR":0.000084346848,"MEAN_MOTION_DOT":0.00000219,"MEAN_MOTION_DDOT":0},{"OBJECT_NAME":"QIANFAN-234","OBJECT_ID":"2026-155R","EPOCH":"2026-07-16T04:54:42.356160","CLASSIFICATION_TYPE":"U","MEAN_MOTION":14.26758168,"ECCENTRICITY":0.00303142,"INCLINATION":89.0066,"RA_OF_ASC_NODE":60.8313,"ARG_OF_PERICENTER":220.3231,"MEAN_ANOMALY":139.5716,"EPHEMERIS_TYPE":0,"NORAD_CAT_ID":69863,"ELEMENT_SET_NO":999,"REV_AT_EPOCH":152,"BSTAR":0.000020994324,"MEAN_MOTION_DOT":6.6e-7,"MEAN_MOTION_DDOT":0},{"OBJECT_NAME":"QIANFAN-235","OBJECT_ID":"2026-155S","EPOCH":"2026-07-16T04:54:38.589984","CLASSIFICATION_TYPE":"U","MEAN_MOTION":14.26764125,"ECCENTRICITY":0.00302626,"INCLINATION":89.0065,"RA_OF_ASC_NODE":60.8311,"ARG_OF_PERICENTER":220.3283,"MEAN_ANOMALY":139.5667,"EPHEMERIS_TYPE":0,"NORAD_CAT_ID":69864,"ELEMENT_SET_NO":999,"REV_AT_EPOCH":152,"BSTAR":0.000021075803,"MEAN_MOTION_DOT":6.6e-7,"MEAN_MOTION_DDOT":0},{"OBJECT_NAME":"QIANFAN-236","OBJECT_ID":"2026-155T","EPOCH":"2026-07-16T04:54:35.337888","CLASSIFICATION_TYPE":"U","MEAN_MOTION":14.2676939,"ECCENTRICITY":0.0030243,"INCLINATION":89.0066,"RA_OF_ASC_NODE":60.8313,"ARG_OF_PERICENTER":220.3632,"MEAN_ANOMALY":139.5318,"EPHEMERIS_TYPE":0,"NORAD_CAT_ID":69865,"ELEMENT_SET_NO":999,"REV_AT_EPOCH":152,"BSTAR":0.000089034555,"MEAN_MOTION_DOT":0.00000231,"MEAN_MOTION_DDOT":0},{"OBJECT_NAME":"QIANFAN-237","OBJECT_ID":"2026-155U","EPOCH":"2026-07-16T06:35:29.405760","CLASSIFICATION_TYPE":"U","MEAN_MOTION":14.26777709,"ECCENTRICITY":0.00302218,"INCLINATION":89.0065,"RA_OF_ASC_NODE":60.8233,"ARG_OF_PERICENTER":220.1478,"MEAN_ANOMALY":139.7483,"EPHEMERIS_TYPE":0,"NORAD_CAT_ID":69866,"ELEMENT_SET_NO":999,"REV_AT_EPOCH":152,"BSTAR":0.000094843546,"MEAN_MOTION_DOT":0.00000245,"MEAN_MOTION_DDOT":0},{"OBJECT_NAME":"QIANFAN-238","OBJECT_ID":"2026-155V","EPOCH":"2026-07-16T06:35:24.657216","CLASSIFICATION_TYPE":"U","MEAN_MOTION":14.26785103,"ECCENTRICITY":0.00302045,"INCLINATION":89.0065,"RA_OF_ASC_NODE":60.8232,"ARG_OF_PERICENTER":220.1804,"MEAN_ANOMALY":139.7157,"EPHEMERIS_TYPE":0,"NORAD_CAT_ID":69867,"ELEMENT_SET_NO":999,"REV_AT_EPOCH":153,"BSTAR":0.000087865096,"MEAN_MOTION_DOT":0.00000228,"MEAN_MOTION_DDOT":0}]}
